ORBCOMM FM05            
1 25117U 97084F   25026.54238551  .00003619  00000+0  10667-2 0  9992
2 25117  45.0159 327.7370 0001844 270.8902  89.1738 14.45045755420110
ORBCOMM FM06            
1 25118U 97084G   25027.19769383  .00003133  00000+0  92598-3 0  9992
2 25118  45.0152 324.5017 0001464 304.1653 195.9610 14.45218965421143
ORBCOMM FM07            
1 25119U 97084H   25026.97380981  .00003555  00000+0  10467-2 0  9993
2 25119  45.0147 326.3156 0002176 251.1100 108.9516 14.45137961421102
ORBCOMM FM03            
1 25158U 98007B   25027.16703799  .00002570  00000+0  95679-3 0  9995
2 25158 107.9685 206.0103 0044341 138.0392 222.4157 14.33907108403964
ORBCOMM FM04            
1 25159U 98007C   25027.17641874  .00002715  00000+0  10050-2 0  9992
2 25159 107.9672 209.1540 0039957 135.6355 224.7997 14.34170622404118
ORBCOMM FM17            
1 25413U 98046A   25026.71217794  .00002008  00000+0  75412-3 0  9996
2 25413  44.9919 205.0650 0002995 205.6584 154.4115 14.34569359382852
ORBCOMM FM18            
1 25414U 98046B   25026.57974825  .00003019  00000+0  10385-2 0  9996
2 25414  44.9921 126.7716 0006008 269.8821  90.1338 14.37826848383860
ORBCOMM FM19            
1 25415U 98046C   25026.58085676  .00002477  00000+0  86379-3 0  9999
2 25415  44.9932 128.5438 0004965 260.2576 119.2673 14.37638198383826
